EOSSAT-1                
1 55053U 23001AW  26068.73619225  .00007695  00000+0  24844-3 0  9992
2 55053  97.3357 130.2294 0011263 110.3168 249.9285 15.32339828176689
STARLINK-35669          
1 66396U 25257S   26068.67371446  .00016053  00000+0  55291-3 0  9990
2 66396  53.1608 216.9084 0000992  84.2037 275.9077 15.30201833 19732
